NORAD_CAT_ID,OBJECT_NAME,OBJECT_TYPE,EPOCH,MEAN_MOTION,ECCENTRICITY,INCLINATION,RA_OF_ASC_NODE,ARG_OF_PERICENTER,MEAN_ANOMALY,BSTAR,MEAN_MOTION_DOT,MEAN_MOTION_DDOT,TLE_LINE0,TLE_LINE1,TLE_LINE2,SEMIMAJOR_AXIS,PERIOD,APOGEE,PERIGEE,DECAYED
52582.0,STARLINK-3886,PAYLOAD,2022-07-02 14:00:01,15.6590175,0.0001119,53.2174,47.3904,75.616,218.8889,-0.011258,-0.01048358,0.0,0 STARLINK-3886,1 52582U 22051AY  22183.58334491 -.01048358  00000-0 -11258-1 0  9994,2 52582  53.2174  47.3904 0001119  75.6160 218.8889 15.65901750  1307,6748.784000000002,91.96,371.404,369.893,0.0
52582.0,STARLINK-3886,PAYLOAD,2022-07-02 22:00:00,15.65145193,0.0001277,53.2173,45.7622,48.6135,325.5837,-0.011661,-0.01052776,0.0,0 STARLINK-3886,1 52582U 22051AY  22183.91667824 -.01052776  00000-0 -11661-1 0  9997,2 52582  53.2173  45.7622 0001277  48.6135 325.5837 15.65145193  1302,6750.958000000001,92.004,373.685,371.961,0.0
52582.0,STARLINK-3886,PAYLOAD,2022-07-03 14:00:01,15.63624142,0.000132,53.2174,42.505,64.6607,106.1901,-0.012333,-0.01048265,0.0,0 STARLINK-3886,1 52582U 22051AY  22184.58334491 -.01048265  00000-0 -12333-1 0  9997,2 52582  53.2174  42.5050 0001320  64.6607 106.1901 15.63624142  1303,6755.3359999999975,92.094,378.092,376.309,0.0
52582.0,STARLINK-3886,PAYLOAD,2022-07-03 22:00:00,15.62864375,0.000132,53.2174,40.8823,63.0142,184.7925,-0.012709,-0.01064496,0.0,0 STARLINK-3886,1 52582U 22051AY  22184.91667824 -.01064496  00000-0 -12709-1 0  9994,2 52582  53.2174  40.8823 0001320  63.0142 184.7925 15.62864375  1300,6757.525,92.139,380.282,378.49800000000016,0.0
52582.0,STARLINK-3886,PAYLOAD,2022-07-04 06:00:00,15.62106341,0.0001037,53.2174,39.2583,79.755,244.096,-0.013125,-0.01066757,0.0,0 STARLINK-3886,1 52582U 22051AY  22185.25001157 -.01066757  00000-0 -13125-1 0  9998,2 52582  53.2174  39.2583 0001037  79.7550 244.0960 15.62106341  8620,6759.7109999999975,92.183,382.277,380.875,0.0
52582.0,STARLINK-3886,PAYLOAD,2022-07-04 14:00:01,15.61344138,0.0001148,53.2176,37.6362,62.017,336.9669,-0.013451,-0.01061707,0.0,0 STARLINK-3886,1 52582U 22051AY  22185.58334491 -.01061707  00000-0 -13451-1 0  9996,2 52582  53.2176  37.6362 0001148  62.0170 336.9669 15.61344138  1307,6761.91,92.228,384.552,382.999,0.0
52582.0,STARLINK-3886,PAYLOAD,2022-07-04 22:00:00,15.60586704,0.00015,53.2175,36.0191,47.5535,65.6471,-0.013893,-0.01064653,0.0,0 STARLINK-3886,1 52582U 22051AY  22185.91667824 -.01064653  00000-0 -13893-1 0  9995,2 52582  53.2175  36.0191 0001500  47.5535  65.6471 15.60586704  1307,6764.098000000001,92.273,386.978,384.949,0.0
52582.0,STARLINK-3886,PAYLOAD,2022-07-05 08:00:01,15.59637731,0.0001107,53.2174,33.996,74.4247,220.2672,-0.014427,-0.01065635,0.0,0 STARLINK-3886,1 52582U 22051AY  22186.33334491 -.01065635  00000-0 -14427-1 0  9998,2 52582  53.2174  33.9960 0001107  74.4247 220.2672 15.59637731  8784,6766.842,92.329,389.456,387.958,0.0
52582.0,STARLINK-3886,PAYLOAD,2022-07-05 14:00:01,15.59066359,0.0001264,53.2174,32.7839,66.7574,192.1444,-0.01468,-0.01061312,0.0,0 STARLINK-3886,1 52582U 22051AY  22186.58334491 -.01061312  00000-0 -14680-1 0  9994,2 52582  53.2174  32.7839 0001264  66.7574 192.1444 15.59066359  1304,6768.495,92.363,391.215,389.504,0.0
52582.0,STARLINK-3886,PAYLOAD,2022-07-05 22:00:00,15.58308803,0.0001200999999999,53.2174,31.1723,59.2954,271.0856,-0.015173,-0.01065324,0.0,0 STARLINK-3886,1 52582U 22051AY  22186.91667824 -.01065324  00000-0 -15173-1 0  9995,2 52582  53.2174  31.1723 0001201  59.2954 271.0856 15.58308803  1305,6770.688,92.408,393.367,391.74,0.0
52582.0,STARLINK-3886,PAYLOAD,2022-07-06 06:00:00,15.57548309,0.0001158,53.2174,29.5592,57.4016,343.5489,-0.015588,-0.01063542,0.0,0 STARLINK-3886,1 52582U 22051AY  22187.25001157 -.01063542  00000-0 -15588-1 0  9994,2 52582  53.2174  29.5592 0001158  57.4016 343.5489 15.57548309  8939,6772.892,92.453,395.541,393.973,0.0
52582.0,STARLINK-3886,PAYLOAD,2022-07-06 14:00:01,15.56787025,0.00013,53.2176,27.9482,61.7951,48.8118,-0.015982,-0.01059998,0.0,0 STARLINK-3886,1 52582U 22051AY  22187.58334491 -.01059998  00000-0 -15982-1 0  9998,2 52582  53.2176  27.9482 0001300  61.7951  48.8118 15.56787025  1303,6775.1,92.498,397.846,396.084,0.0
52582.0,STARLINK-3886,PAYLOAD,2022-07-06 19:42:31,15.58124568,0.0001182,53.2158,26.8092,115.612,244.5016,-0.0043085,-0.00317994,0.0,0 STARLINK-3886,1 52582U 22051AY  22187.82119782 -.00317994  00000-0 -43085-2 0  9997,2 52582  53.2158  26.8092 0001182 115.6120 244.5016 15.58124568  9021,6771.222,92.419,393.887,392.287,0.0
52582.0,STARLINK-3886,PAYLOAD,2022-07-07 06:00:02,15.55271146,0.0001244,53.2175,24.7341,70.3412,176.9023,-0.017008,-0.01065443,0.0,0 STARLINK-3886,1 52582U 22051AY  22188.25002315 -.01065443  00000-0 -17008-1 0  9993,2 52582  53.2175  24.7341 0001244  70.3412 176.9023 15.55271146  9088,6779.502,92.588,402.21,400.523,0.0
52582.0,STARLINK-3886,PAYLOAD,2022-07-07 12:37:59,15.58567864,0.0011940999999999,53.2168,23.3917,157.4129,202.7412,-0.001184,-0.00092092,0.0,0 STARLINK-3886,1 52582U 22051AY  22188.52638800 -.00092092  00000-0 -11840-2 0  9995,2 52582  53.2168  23.3917 0011941 157.4129 202.7412 15.58567864  9135,6769.938,92.393,399.887,383.719,0.0
52582.0,STARLINK-3886,PAYLOAD,2022-07-07 22:00:00,15.53750764,0.0001367,53.2176,21.5283,46.1328,333.9677,-0.017935,-0.01062559,0.0,0 STARLINK-3886,1 52582U 22051AY  22188.91667824 -.01062559  00000-0 -17935-1 0  9992,2 52582  53.2176  21.5283 0001367  46.1328 333.9677 15.53750764  9190,6783.9230000000025,92.679,406.716,404.861,0.0
52582.0,STARLINK-3886,PAYLOAD,2022-07-08 14:00:01,15.52229136,0.0001447,53.2177,18.3265,56.3848,92.9894,-0.018857,-0.01057416,0.0,0 STARLINK-3886,1 52582U 22051AY  22189.58334491 -.01057416  00000-0 -18857-1 0  9997,2 52582  53.2177  18.3265 0001447  56.3848  92.9894 15.52229136  1305,6788.356,92.77,411.203,409.239,0.0
52582.0,STARLINK-3886,PAYLOAD,2022-07-08 22:00:01,15.5146936,0.0001548,53.2175,16.730999999999998,52.8561,159.8486,-0.01937,-0.01056843,0.0,0 STARLINK-3886,1 52582U 22051AY  22189.91668981 -.01056843  00000-0 -19370-1 0  9992,2 52582  53.2175  16.7310 0001548  52.8561 159.8486 15.51469360  9347,6790.571999999999,92.815,413.48800000000006,411.386,0.0
52582.0,STARLINK-3886,PAYLOAD,2022-07-09 14:00:01,15.49947672,0.0001434,53.2175,13.5396,66.5725,269.8996,-0.0017776,-0.00100281,0.0,0 STARLINK-3886,1 52582U 22051AY  22190.58334491 -.00100281  00000-0 -17776-2 0  9997,2 52582  53.2175  13.5396 0001434  66.5725 269.8996 15.49947672  1304,6795.016,92.906,417.855,415.907,0.0
52582.0,STARLINK-3886,PAYLOAD,2022-07-09 16:00:00,15.49884682,0.0001418,53.2174,13.142,60.2823,21.4484,-5.1758e-07,-4.81e-06,0.0,0 STARLINK-3886,1 52582U 22051AY  22190.66667824 -.00000481  00000-0 -51758-6 0  9998,2 52582  53.2174  13.1420 0001418  60.2823  21.4484 15.49884682  9469,6795.2,92.91,418.029,416.102,0.0
52582.0,STARLINK-3886,PAYLOAD,2022-07-09 20:00:01,15.49985973,0.0001399,53.2167,12.345,59.9836,232.1816,-0.0034903,-0.00194405,0.0,0 STARLINK-3886,1 52582U 22051AY  22190.83334491 -.00194405  00000-0 -34903-2 0  9997,2 52582  53.2167  12.3450 0001399  59.9836 232.1816 15.49985973  1302,6794.904,92.904,417.72,415.818,0.0
52582.0,STARLINK-3886,PAYLOAD,2022-07-10 06:00:00,15.49917467,0.0001111,53.2165,10.35,50.7052,47.6877,0.00029807,0.00016521,0.0,0 STARLINK-3886,1 52582U 22051AY  22191.25001157  .00016521  00000-0  29807-3 0  9992,2 52582  53.2165  10.3500 0001111  50.7052  47.6877 15.49917467  9559,6795.104,92.908,417.724,416.214,0.0
52582.0,STARLINK-3886,PAYLOAD,2022-07-10 14:00:01,15.4980736,0.0001346,53.2172,8.7589,69.6055,89.7621,-0.0039602,-0.00218462,0.0,0 STARLINK-3886,1 52582U 22051AY  22191.58334491 -.00218462  00000-0 -39602-2 0  9991,2 52582  53.2172   8.7589 0001346  69.6055  89.7621 15.49807360  9607,6795.426,92.915,418.206,416.376,0.0
52582.0,STARLINK-3886,PAYLOAD,2022-07-10 22:00:00,15.49738898,0.0001327,53.2175,7.1693,67.6571,152.4572,-0.018874,-0.00975264,0.0,0 STARLINK-3886,1 52582U 22051AY  22191.91667824 -.00975264  00000-0 -18874-1 0  9994,2 52582  53.2175   7.1693 0001327  67.6571 152.4572 15.49738898  9656,6795.626,92.919,418.393,416.589,0.0
52582.0,STARLINK-3886,PAYLOAD,2022-07-11 06:00:00,15.49037862,0.0001255,53.2176,5.5764,61.6925,218.7398,-0.021191,-0.01059631,0.0,0 STARLINK-3886,1 52582U 22051AY  22192.25001157 -.01059631  00000-0 -21191-1 0  9991,2 52582  53.2176   5.5764 0001255  61.6925 218.7398 15.49037862  9706,6797.676,92.961,420.395,418.68800000000016,0.0
52582.0,STARLINK-3886,PAYLOAD,2022-07-11 14:00:01,15.48278916,0.0001363,53.2178,3.9872,46.6485,293.2132,-0.021778,-0.01060164,0.0,0 STARLINK-3886,1 52582U 22051AY  22192.58334491 -.01060164  00000-0 -21778-1 0  9991,2 52582  53.2178   3.9872 0001363  46.6485 293.2132 15.48278916  1302,6799.898,93.006,422.689,420.836,0.0
52582.0,STARLINK-3886,PAYLOAD,2022-07-11 22:00:00,15.4751625,0.0001269,53.2174,2.4009,52.9342,345.4452,-0.022246,-0.01054833,0.0,0 STARLINK-3886,1 52582U 22051AY  22192.91667824 -.01054833  00000-0 -22246-1 0  9994,2 52582  53.2174   2.4009 0001269  52.9342 345.4452 15.47516250  1301,6802.132,93.052,424.86,423.133,0.0
52582.0,STARLINK-3886,PAYLOAD,2022-07-12 06:00:00,15.46756913,0.0001351999999999,53.2175,0.813,51.3554,44.63,-0.022855,-0.01055322,0.0,0 STARLINK-3886,1 52582U 22051AY  22193.25001157 -.01055322  00000-0 -22855-1 0  9993,2 52582  53.2175   0.8130 0001352  51.3554  44.6300 15.46756913  9860,6804.358,93.098,427.143,425.30300000000005,0.0
52582.0,STARLINK-3886,PAYLOAD,2022-07-12 14:00:01,15.45998333,0.0001585999999999,53.2176,359.2293,48.2151,104.4616,-0.023493,-0.01056517,0.0,0 STARLINK-3886,1 52582U 22051AY  22193.58334491 -.01056517  00000-0 -23493-1 0  9995,2 52582  53.2176 359.2293 0001586  48.2151 104.4616 15.45998333  1308,6806.583000000001,93.144,429.528,427.369,0.0
